[{"OBJECT_NAME":"STARLINK-32897","OBJECT_ID":"2025-029V","EPOCH":"2026-03-09T17:14:02.444640","MEAN_MOTION":15.30207132,"ECCENTRICITY":0.00016846,"INCLINATION":53.1597,"RA_OF_ASC_NODE":232.2028,"ARG_OF_PERICENTER":20.4546,"MEAN_ANOMALY":339.6522,"EPHEMERIS_TYPE":0,"CLASSIFICATION_TYPE":"U","NORAD_CAT_ID":62967,"ELEMENT_SET_NO":999,"REV_AT_EPOCH":6132,"BSTAR":0.00056297726,"MEAN_MOTION_DOT":0.00016355,"MEAN_MOTION_DDOT":0},{"OBJECT_NAME":"GEOSCAN 3 (RS92S3)","OBJECT_ID":"2025-155T","EPOCH":"2026-03-09T22:52:10.587648","MEAN_MOTION":15.31696739,"ECCENTRICITY":0.00068078,"INCLINATION":97.4455,"RA_OF_ASC_NODE":37.9971,"ARG_OF_PERICENTER":154.1387,"MEAN_ANOMALY":206.0196,"EPHEMERIS_TYPE":0,"CLASSIFICATION_TYPE":"U","NORAD_CAT_ID":64893,"ELEMENT_SET_NO":999,"REV_AT_EPOCH":6564,"BSTAR":0.00078414081,"MEAN_MOTION_DOT":0.00023985,"MEAN_MOTION_DDOT":0}]
